[{
  "OBJECT_ID": "1960-002B",
  "OBJECT_NAME": "TIROS 1",
  "NORAD_CAT_ID": "29",
  "OBJECT_TYPE": "PAYLOAD",
  "PERIOD": "97.687",
  "INCLINATION": "48.3805",
  "APOGEE": "664.797",
  "PERIGEE": "631.310",
  "ECCENTRICITY": "0.002383",
  "MEAN_MOTION": "14.74086771",
  "TLE_LINE1": "1 00029U 60002B   16239.48448022 -.00000093  00000-0  17205-4 0  9994",
  "TLE_LINE2": "2 00029  48.3805  31.8670 0023830  42.0532 318.2203 14.74086771 13422",
  "LAUNCH_DATE": "1960-04-01",
  "LAUNCH_SITE": "AIR FORCE EASTERN TEST RANGE",
  "OWNER": "UNITED STATES OF AMERICA",
  "ORBIT_TYPE": "Low Earth Orbit",
  "OPERATIONAL_STATUS": "Nonoperational"
}, {
  "OBJECT_ID": "1961-017A",
  "OBJECT_NAME": "TIROS 3",
  "NORAD_CAT_ID": "162",
  "OBJECT_TYPE": "PAYLOAD",
  "PERIOD": "99.727",
  "INCLINATION": "47.8997",
  "APOGEE": "777.607",
  "PERIGEE": "713.426",
  "ECCENTRICITY": "0.0045048",
  "MEAN_MOTION": "14.43938553",
  "TLE_LINE1": "1   162U 61017A   16238.89240669 -.00000127 +00000-0 +10651-4 0  9996",
  "TLE_LINE2": "2   162 047.8997 075.2169 0045048 340.8325 019.0871 14.43938553873965",
  "LAUNCH_DATE": "1961-07-12",
  "LAUNCH_SITE": "AIR FORCE EASTERN TEST RANGE",
  "OWNER": "UNITED STATES OF AMERICA",
  "ORBIT_TYPE": "Low Earth Orbit",
  "OPERATIONAL_STATUS": "Nonoperational"
}, {
  "OBJECT_ID": "1962-002A",
  "OBJECT_NAME": "TIROS 4",
  "NORAD_CAT_ID": "226",
  "OBJECT_TYPE": "PAYLOAD",
  "PERIOD": "99.616",
  "INCLINATION": "48.2981",
  "APOGEE": "796.196",
  "PERIGEE": "684.251",
  "ECCENTRICITY": "0.0078631",
  "MEAN_MOTION": "14.45549478",
  "TLE_LINE1": "1 00226U 62002A   16238.83526803 -.00000122  00000-0  13717-4 0  9994",
  "TLE_LINE2": "2 00226  48.2981 356.2759 0078631 275.3430  83.8501 14.45549478870900",
  "LAUNCH_DATE": "1962-02-08",
  "LAUNCH_SITE": "AIR FORCE EASTERN TEST RANGE",
  "OWNER": "UNITED STATES OF AMERICA",
  "ORBIT_TYPE": "Low Earth Orbit",
  "OPERATIONAL_STATUS": "Nonoperational"
}, {
  "OBJECT_ID": "1962-025A",
  "OBJECT_NAME": "TIROS 5",
  "NORAD_CAT_ID": "309",
  "OBJECT_TYPE": "PAYLOAD",
  "PERIOD": "98.861",
  "INCLINATION": "58.0923",
  "APOGEE": "843.870",
  "PERIGEE": "564.543",
  "ECCENTRICITY": "0.01972",
  "MEAN_MOTION": "14.56590266",
  "TLE_LINE1": "1   309U 62025A   16238.87052360 -.00000141 +00000-0 +12257-4 0  9996",
  "TLE_LINE2": "2   309 058.0923 005.6864 0197200 030.8452 330.3987 14.56590266859550",
  "LAUNCH_DATE": "1962-06-19",
  "LAUNCH_SITE": "AIR FORCE EASTERN TEST RANGE",
  "OWNER": "UNITED STATES OF AMERICA",
  "ORBIT_TYPE": "Low Earth Orbit",
  "OPERATIONAL_STATUS": "Nonoperational"
}, {
  "OBJECT_ID": "1962-047A",
  "OBJECT_NAME": "TIROS 6",
  "NORAD_CAT_ID": "397",
  "OBJECT_TYPE": "PAYLOAD",
  "PERIOD": "96.771",
  "INCLINATION": "58.3056",
  "APOGEE": "605.844",
  "PERIGEE": "602.283",
  "ECCENTRICITY": "0.000255",
  "MEAN_MOTION": "14.88039371",
  "TLE_LINE1": "1 00397U 62047A   16238.60442884 -.00000057  00000-0  16865-4 0  9997",
  "TLE_LINE2": "2 00397  58.3056 287.2884 0002550 223.9632 136.1209 14.88039371899727",
  "LAUNCH_DATE": "1962-09-18",
  "LAUNCH_SITE": "AIR FORCE EASTERN TEST RANGE",
  "OWNER": "UNITED STATES OF AMERICA",
  "ORBIT_TYPE": "Low Earth Orbit",
  "OPERATIONAL_STATUS": "Nonoperational"
}, {
  "OBJECT_ID": "1963-054A",
  "OBJECT_NAME": "TIROS 8",
  "NORAD_CAT_ID": "716",
  "OBJECT_TYPE": "PAYLOAD",
  "PERIOD": "98.006",
  "INCLINATION": "58.4952",
  "APOGEE": "678.018",
  "PERIGEE": "648.635",
  "ECCENTRICITY": "0.0020864",
  "MEAN_MOTION": "14.69293377",
  "TLE_LINE1": "1 00716U 63054A   16239.16516752 -.00000137  00000-0  79258-5 0  9994",
  "TLE_LINE2": "2 00716  58.4952 286.4116 0020864 343.9737  16.0638 14.69293377810018",
  "LAUNCH_DATE": "1963-12-21",
  "LAUNCH_SITE": "AIR FORCE WESTERN TEST RANGE",
  "OWNER": "UNITED STATES OF AMERICA",
  "ORBIT_TYPE": "Low Earth Orbit",
  "OPERATIONAL_STATUS": "Nonoperational"
}, {
  "OBJECT_ID": "1965-004A",
  "OBJECT_NAME": "TIROS 9",
  "NORAD_CAT_ID": "978",
  "OBJECT_TYPE": "PAYLOAD",
  "PERIOD": "118.923",
  "INCLINATION": "96.3995",
  "APOGEE": "2560.313",
  "PERIGEE": "704.890",
  "ECCENTRICITY": "0.1158085",
  "MEAN_MOTION": "12.10860305",
  "TLE_LINE1": "1   978U 65004A   16238.66934307 -.00000079 +00000-0 -77706-4 0  9996",
  "TLE_LINE2": "2   978 096.3995 278.4597 1158085 218.6867 132.5492 12.10860305278004",
  "LAUNCH_DATE": "1965-01-22",
  "LAUNCH_SITE": "AIR FORCE EASTERN TEST RANGE",
  "OWNER": "UNITED STATES OF AMERICA",
  "ORBIT_TYPE": "Low Earth Orbit",
  "OPERATIONAL_STATUS": "Nonoperational"
}, {
  "OBJECT_ID": "1965-016F",
  "OBJECT_NAME": "OSCAR 3",
  "NORAD_CAT_ID": "1293",
  "OBJECT_TYPE": "PAYLOAD",
  "PERIOD": "102.411",
  "INCLINATION": "70.0723",
  "APOGEE": "887.789",
  "PERIGEE": "857.783",
  "ECCENTRICITY": "0.0020691",
  "MEAN_MOTION": "14.06089393",
  "TLE_LINE1": "1 01293U 65016F   16239.45304766 -.00000082  00000-0 -17122-4 0  9998",
  "TLE_LINE2": "2 01293  70.0723 247.5928 0020691 264.9284  94.9466 14.06089393628913",
  "LAUNCH_DATE": "1965-03-09",
  "LAUNCH_SITE": "AIR FORCE WESTERN TEST RANGE",
  "OWNER": "UNITED STATES OF AMERICA",
  "ORBIT_TYPE": "Low Earth Orbit",
  "OPERATIONAL_STATUS": "Nonoperational"
}, {
  "OBJECT_ID": "1965-051A",
  "OBJECT_NAME": "TIROS 10",
  "NORAD_CAT_ID": "1430",
  "OBJECT_TYPE": "PAYLOAD",
  "PERIOD": "99.989",
  "INCLINATION": "98.1065",
  "APOGEE": "799.206",
  "PERIGEE": "716.759",
  "ECCENTRICITY": "0.0057768",
  "MEAN_MOTION": "14.40156618",
  "TLE_LINE1": "1 01430U 65051A   16239.09289169  .00000013  00000-0  16508-4 0  9998",
  "TLE_LINE2": "2 01430  98.1065  42.3008 0057768  69.1492 291.5870 14.40156618680631",
  "LAUNCH_DATE": "1965-07-02",
  "LAUNCH_SITE": "AIR FORCE EASTERN TEST RANGE",
  "OWNER": "UNITED STATES OF AMERICA",
  "ORBIT_TYPE": "Low Earth Orbit",
  "OPERATIONAL_STATUS": "Nonoperational"
}, {
  "OBJECT_ID": "1965-082C",
  "OBJECT_NAME": "OV2-1",
  "NORAD_CAT_ID": "1641",
  "OBJECT_TYPE": "PAYLOAD",
  "PERIOD": "99.097",
  "INCLINATION": "32.2959",
  "APOGEE": "729.122",
  "PERIGEE": "701.832",
  "ECCENTRICITY": "0.0019236",
  "MEAN_MOTION": "14.53120371",
  "TLE_LINE1": "1 01641U 65082C   16239.16547295  .00000085  00000-0  12515-4 0  9994",
  "TLE_LINE2": "2 01641  32.2959 194.4296 0019236 173.7364 186.3524 14.53120371695872",
  "LAUNCH_DATE": "1965-10-15",
  "LAUNCH_SITE": "AIR FORCE EASTERN TEST RANGE",
  "OWNER": "UNITED STATES OF AMERICA",
  "ORBIT_TYPE": "Low Earth Orbit",
  "OPERATIONAL_STATUS": "Nonoperational"
}, {
  "OBJECT_ID": "1966-008A",
  "OBJECT_NAME": "ESSA 1 (OT-3)",
  "NORAD_CAT_ID": "1982",
  "OBJECT_TYPE": "PAYLOAD",
  "PERIOD": "99.530",
  "INCLINATION": "97.8581",
  "APOGEE": "794.075",
  "PERIGEE": "678.261",
  "ECCENTRICITY": "0.0081395",
  "MEAN_MOTION": "14.46785686",
  "TLE_LINE1": "1 01982U 66008A   16239.53334339 -.00000008  00000-0  92015-5 0  9995",
  "TLE_LINE2": "2 01982  97.8581 108.3425 0081395 344.9414  14.9357 14.46785686660666",
  "LAUNCH_DATE": "1966-02-03",
  "LAUNCH_SITE": "AIR FORCE EASTERN TEST RANGE",
  "OWNER": "UNITED STATES OF AMERICA",
  "ORBIT_TYPE": "Low Earth Orbit",
  "OPERATIONAL_STATUS": "Nonoperational"
}, {
  "OBJECT_ID": "1966-016A",
  "OBJECT_NAME": "ESSA 2 (OT-2)",
  "NORAD_CAT_ID": "2091",
  "OBJECT_TYPE": "PAYLOAD",
  "PERIOD": "113.442",
  "INCLINATION": "101.0319",
  "APOGEE": "1414.597",
  "PERIGEE": "1354.450",
  "ECCENTRICITY": "0.0038741",
  "MEAN_MOTION": "12.69366391",
  "TLE_LINE1": "1  2091U 66016A   16238.80321494 -.00000032 +00000-0 +54444-4 0  9993",
  "TLE_LINE2": "2  2091 101.0319 195.7440 0038741 340.5066 024.5050 12.69366391339081",
  "LAUNCH_DATE": "1966-02-28",
  "LAUNCH_SITE": "AIR FORCE EASTERN TEST RANGE",
  "OWNER": "UNITED STATES OF AMERICA",
  "ORBIT_TYPE": "Low Earth Orbit",
  "OPERATIONAL_STATUS": "Nonoperational"
}, {
  "OBJECT_ID": "1966-040A",
  "OBJECT_NAME": "NIMBUS 2",
  "NORAD_CAT_ID": "2173",
  "OBJECT_TYPE": "PAYLOAD",
  "PERIOD": "107.985",
  "INCLINATION": "100.3248",
  "APOGEE": "1175.571",
  "PERIGEE": "1091.561",
  "ECCENTRICITY": "0.0055919",
  "MEAN_MOTION": "13.33506944",
  "TLE_LINE1": "1 02173U 66040A   16239.38806854 -.00000033  00000-0  26413-4 0  9999",
  "TLE_LINE2": "2 02173 100.3248 333.9949 0055919  66.3033 336.3234 13.33506944446661",
  "LAUNCH_DATE": "1966-05-15",
  "LAUNCH_SITE": "AIR FORCE WESTERN TEST RANGE",
  "OWNER": "UNITED STATES OF AMERICA",
  "ORBIT_TYPE": "Low Earth Orbit",
  "OPERATIONAL_STATUS": "Nonoperational"
}, {
  "OBJECT_ID": "1966-056A",
  "OBJECT_NAME": "PAGEOS 1",
  "NORAD_CAT_ID": "2253",
  "OBJECT_TYPE": "PAYLOAD",
  "PERIOD": "124.643",
  "INCLINATION": "83.7258",
  "APOGEE": "3513.562",
  "PERIGEE": "261.366",
  "ECCENTRICITY": "0.1967308",
  "MEAN_MOTION": "11.55290592",
  "TLE_LINE1": "1 02253U 66056A   16239.23176991  .10324265  14311-1  23495+0 0  9990",
  "TLE_LINE2": "2 02253  83.7258 218.3053 1967308 133.7000 244.4950 11.55290592 30175",
  "LAUNCH_DATE": "1966-06-24",
  "LAUNCH_SITE": "AIR FORCE WESTERN TEST RANGE",
  "OWNER": "UNITED STATES OF AMERICA",
  "ORBIT_TYPE": "Low Earth Orbit",
  "OPERATIONAL_STATUS": "Nonoperational"
}, {
  "OBJECT_ID": "1966-082A",
  "OBJECT_NAME": "OPS 6026 (DMSP 4A F1)",
  "NORAD_CAT_ID": "2418",
  "OBJECT_TYPE": "PAYLOAD",
  "PERIOD": "99.890",
  "INCLINATION": "98.3394",
  "APOGEE": "839.197",
  "PERIGEE": "667.336",
  "ECCENTRICITY": "0.0120496",
  "MEAN_MOTION": "14.41585354",
  "TLE_LINE1": "1 02418U 66082A   16239.17967065  .00000011  00000-0  16002-4 0  9994",
  "TLE_LINE2": "2 02418  98.3394 101.4120 0120496  71.1933 290.2282 14.41585354616703",
  "LAUNCH_DATE": "1966-09-16",
  "LAUNCH_SITE": "AIR FORCE WESTERN TEST RANGE",
  "OWNER": "UNITED STATES OF AMERICA",
  "ORBIT_TYPE": "Low Earth Orbit",
  "OPERATIONAL_STATUS": "Nonoperational"
}]